[{"OBJECT_NAME":"ONEWEB-0531","OBJECT_ID":"2022-138AK","EPOCH":"2026-03-09T16:30:48.735648","MEAN_MOTION":13.20771535,"ECCENTRICITY":0.0002205,"INCLINATION":87.9171,"RA_OF_ASC_NODE":294.3035,"ARG_OF_PERICENTER":64.0855,"MEAN_ANOMALY":296.0505,"EPHEMERIS_TYPE":0,"CLASSIFICATION_TYPE":"U","NORAD_CAT_ID":54146,"ELEMENT_SET_NO":999,"REV_AT_EPOCH":16617,"BSTAR":-0.00045194838,"MEAN_MOTION_DOT":-1.71e-6,"MEAN_MOTION_DDOT":0},{"OBJECT_NAME":"DELTA 1 DEB","OBJECT_ID":"1975-052JE","EPOCH":"2026-03-09T06:18:37.398240","MEAN_MOTION":13.19659386,"ECCENTRICITY":0.03507439,"INCLINATION":100.0234,"RA_OF_ASC_NODE":342.1518,"ARG_OF_PERICENTER":177.5855,"MEAN_ANOMALY":335.8991,"EPHEMERIS_TYPE":0,"CLASSIFICATION_TYPE":"U","NORAD_CAT_ID":21678,"ELEMENT_SET_NO":999,"REV_AT_EPOCH":66332,"BSTAR":0.0020025235,"MEAN_MOTION_DOT":1.062e-5,"MEAN_MOTION_DDOT":0}]
